{
  "type": "FeatureCollection",
  "features": [
    {
      "type": "Feature",
      "geometry": {
        "type": "Polygon",
        "coordinates": [
          [
            [
              -121.028031,
              38.982427
            ],
            [
              -121.028027,
              38.982556
            ],
            [
              -121.027992,
              38.982775
            ],
            [
              -121.02793,
              38.982991
            ],
            [
              -121.027842,
              38.983201
            ],
            [
              -121.027727,
              38.983403
            ],
            [
              -121.027588,
              38.983595
            ],
            [
              -121.027425,
              38.983776
            ],
            [
              -121.02724,
              38.983943
            ],
            [
              -121.027035,
              38.984096
            ],
            [
              -121.026812,
              38.984232
            ],
            [
              -121.026657,
              38.984308
            ],
            [
              -121.026617,
              38.984333
            ],
            [
              -121.026588,
              38.984349
            ],
            [
              -121.02658,
              38.984354
            ],
            [
              -121.026301,
              38.984536
            ],
            [
              -121.026207,
              38.98459
            ],
            [
              -121.02602,
              38.984688
            ],
            [
              -121.025936,
              38.984726
            ],
            [
              -121.025933,
              38.984728
            ],
            [
              -121.025897,
              38.984757
            ],
            [
              -121.025734,
              38.984876
            ],
            [
              -121.02556,
              38.984986
            ],
            [
              -121.025469,
              38.985039
            ],
            [
              -121.025198,
              38.985179
            ],
            [
              -121.025079,
              38.985233
            ],
            [
              -121.024871,
              38.985319
            ],
            [
              -121.024654,
              38.985392
            ],
            [
              -121.024498,
              38.985438
            ],
            [
              -121.024354,
              38.985473
            ],
            [
              -121.024337,
              38.985479
            ],
            [
              -121.024212,
              38.985523
            ],
            [
              -121.023987,
              38.985593
            ],
            [
              -121.023799,
              38.985645
            ],
            [
              -121.023498,
              38.985713
            ],
            [
              -121.02319,
              38.985756
            ],
            [
              -121.023128,
              38.985762
            ],
            [
              -121.022815,
              38.985778
            ],
            [
              -121.022741,
              38.985779
            ],
            [
              -121.022436,
              38.985769
            ],
            [
              -121.022135,
              38.985734
            ],
            [
              -121.021891,
              38.985685
            ],
            [
              -121.021833,
              38.985726
            ],
            [
              -121.021503,
              38.985946
            ],
            [
              -121.021338,
              38.986048
            ],
            [
              -121.021207,
              38.986123
            ],
            [
              -121.020945,
              38.986257
            ],
            [
              -121.020838,
              38.986305
            ],
            [
              -121.020495,
              38.986438
            ],
            [
              -121.020386,
              38.986473
            ],
            [
              -121.020303,
              38.986496
            ],
            [
              -121.020265,
              38.986629
            ],
            [
              -121.020198,
              38.986796
            ],
            [
              -121.020158,
              38.986886
            ],
            [
              -121.020033,
              38.98712
            ],
            [
              -121.019875,
              38.987341
            ],
            [
              -121.019686,
              38.987548
            ],
            [
              -121.019587,
              38.987645
            ],
            [
              -121.019368,
              38.987834
            ],
            [
              -121.019123,
              38.988003
            ],
            [
              -121.018855,
              38.98815
            ],
            [
              -121.018759,
              38.988196
            ],
            [
              -121.01854,
              38.988292
            ],
            [
              -121.01831,
              38.988372
            ],
            [
              -121.018073,
              38.988437
            ],
            [
              -121.017829,
              38.988485
            ],
            [
              -121.017714,
              38.988504
            ],
            [
              -121.017378,
              38.988543
            ],
            [
              -121.017348,
              38.988545
            ],
            [
              -121.017272,
              38.988552
            ],
            [
              -121.017057,
              38.988566
            ],
            [
              -121.016842,
              38.988568
            ],
            [
              -121.016684,
              38.988564
            ],
            [
              -121.016506,
              38.988553
            ],
            [
              -121.016479,
              38.988567
            ],
            [
              -121.016281,
              38.988645
            ],
            [
              -121.016273,
              38.988679
            ],
            [
              -121.016208,
              38.988897
            ],
            [
              -121.016116,
              38.989109
            ],
            [
              -121.015997,
              38.989313
            ],
            [
              -121.015853,
              38.989506
            ],
            [
              -121.015812,
              38.989556
            ],
            [
              -121.015634,
              38.989747
            ],
            [
              -121.015432,
              38.989922
            ],
            [
              -121.015207,
              38.99008
            ],
            [
              -121.015133,
              38.990127
            ],
            [
              -121.015038,
              38.990184
            ],
            [
              -121.01493,
              38.990246
            ],
            [
              -121.014841,
              38.990296
            ],
            [
              -121.014703,
              38.99037
            ],
            [
              -121.014638,
              38.990404
            ],
            [
              -121.014528,
              38.990459
            ],
            [
              -121.01419,
              38.990605
            ],
            [
              -121.014137,
              38.990624
            ],
            [
              -121.014091,
              38.9907
            ],
            [
              -121.014061,
              38.990745
            ],
            [
              -121.013895,
              38.990962
            ],
            [
              -121.013698,
              38.991164
            ],
            [
              -121.013474,
              38.991346
            ],
            [
              -121.013436,
              38.991373
            ],
            [
              -121.013439,
              38.99144
            ],
            [
              -121.013427,
              38.991627
            ],
            [
              -121.013418,
              38.991706
            ],
            [
              -121.013378,
              38.991926
            ],
            [
              -121.01331,
              38.992141
            ],
            [
              -121.01328,
              38.992209
            ],
            [
              -121.013277,
              38.99225
            ],
            [
              -121.013268,
              38.992327
            ],
            [
              -121.013231,
              38.992525
            ],
            [
              -121.013173,
              38.99272
            ],
            [
              -121.013092,
              38.992911
            ],
            [
              -121.013041,
              38.993015
            ],
            [
              -121.012931,
              38.993212
            ],
            [
              -121.012797,
              38.9934
            ],
            [
              -121.012641,
              38.993576
            ],
            [
              -121.012464,
              38.993741
            ],
            [
              -121.012424,
              38.993775
            ],
            [
              -121.012338,
              38.99385
            ],
            [
              -121.012298,
              38.993883
            ],
            [
              -121.012304,
              38.993916
            ],
            [
              -121.012312,
              38.993991
            ],
            [
              -121.012323,
              38.994208
            ],
            [
              -121.012308,
              38.994425
            ],
            [
              -121.012306,
              38.994437
            ],
            [
              -121.012303,
              38.994475
            ],
            [
              -121.012273,
              38.994677
            ],
            [
              -121.01222,
              38.994877
            ],
            [
              -121.012145,
              38.995071
            ],
            [
              -121.012103,
              38.995162
            ],
            [
              -121.011947,
              38.995445
            ],
            [
              -121.011914,
              38.995494
            ],
            [
              -121.011759,
              38.995701
            ],
            [
              -121.011576,
              38.995894
            ],
            [
              -121.011508,
              38.995958
            ],
            [
              -121.011495,
              38.995971
            ],
            [
              -121.011478,
              38.995986
            ],
            [
              -121.011469,
              38.996045
            ],
            [
              -121.011453,
              38.996111
            ],
            [
              -121.011425,
              38.996214
            ],
            [
              -121.011399,
              38.996298
            ],
            [
              -121.011305,
              38.996542
            ],
            [
              -121.011177,
              38.996776
            ],
            [
              -121.011126,
              38.996856
            ],
            [
              -121.011011,
              38.997018
            ],
            [
              -121.010958,
              38.997087
            ],
            [
              -121.010921,
              38.997131
            ],
            [
              -121.010949,
              38.997292
            ],
            [
              -121.010958,
              38.997518
            ],
            [
              -121.010955,
              38.997643
            ],
            [
              -121.010948,
              38.997716
            ],
            [
              -121.01095,
              38.997727
            ],
            [
              -121.010976,
              38.997749
            ],
            [
              -121.011169,
              38.997925
            ],
            [
              -121.011338,
              38.998115
            ],
            [
              -121.011481,
              38.998318
            ],
            [
              -121.01151,
              38.998365
            ],
            [
              -121.011612,
              38.998551
            ],
            [
              -121.011693,
              38.998743
            ],
            [
              -121.011751,
              38.99894
            ],
            [
              -121.011764,
              38.998999
            ],
            [
              -121.011789,
              38.999122
            ],
            [
              -121.011793,
              38.999145
            ],
            [
              -121.011814,
              38.999366
            ],
            [
              -121.011808,
              38.999588
            ],
            [
              -121.011802,
              38.999661
            ],
            [
              -121.011789,
              38.999806
            ],
            [
              -121.011783,
              38.999856
            ],
            [
              -121.011744,
              39.000059
            ],
            [
              -121.011686,
              39.000246
            ],
            [
              -121.01177,
              39.000381
            ],
            [
              -121.011863,
              39.000573
            ],
            [
              -121.011881,
              39.000614
            ],
            [
              -121.011963,
              39.000856
            ],
            [
              -121.012011,
              39.001104
            ],
            [
              -121.012033,
              39.001294
            ],
            [
              -121.012041,
              39.001375
            ],
            [
              -121.012044,
              39.001415
            ],
            [
              -121.012052,
              39.001488
            ],
            [
              -121.012064,
              39.001694
            ],
            [
              -121.012051,
              39.001901
            ],
            [
              -121.012014,
              39.002106
            ],
            [
              -121.011999,
              39.002166
            ],
            [
              -121.011917,
              39.002422
            ],
            [
              -121.011798,
              39.002668
            ],
            [
              -121.011772,
              39.002712
            ],
            [
              -121.011644,
              39.002909
            ],
            [
              -121.011492,
              39.003095
            ],
            [
              -121.011317,
              39.003269
            ],
            [
              -121.011266,
              39.003315
            ],
            [
              -121.011237,
              39.003339
            ],
            [
              -121.011216,
              39.003383
            ],
            [
              -121.011196,
              39.00342
            ],
            [
              -121.01109,
              39.003591
            ],
            [
              -121.011095,
              39.003823
            ],
            [
              -121.011068,
              39.004033
            ],
            [
              -121.011076,
              39.00405
            ],
            [
              -121.01109,
              39.004084
            ],
            [
              -121.011092,
              39.004086
            ],
            [
              -121.011118,
              39.004121
            ],
            [
              -121.011139,
              39.004149
            ],
            [
              -121.011276,
              39.004349
            ],
            [
              -121.011386,
              39.004558
            ],
            [
              -121.011436,
              39.004669
            ],
            [
              -121.011455,
              39.004709
            ],
            [
              -121.01156,
              39.004996
            ],
            [
              -121.011578,
              39.005063
            ],
            [
              -121.011589,
              39.0051
            ],
            [
              -121.011636,
              39.005322
            ],
            [
              -121.011655,
              39.005546
            ],
            [
              -121.011656,
              39.005606
            ],
            [
              -121.011636,
              39.00591
            ],
            [
              -121.011629,
              39.005954
            ],
            [
              -121.011628,
              39.005959
            ],
            [
              -121.01162,
              39.006014
            ],
            [
              -121.011578,
              39.006206
            ],
            [
              -121.011516,
              39.006395
            ],
            [
              -121.011481,
              39.006486
            ],
            [
              -121.011396,
              39.006673
            ],
            [
              -121.011363,
              39.006738
            ],
            [
              -121.011318,
              39.00682
            ],
            [
              -121.011281,
              39.006884
            ],
            [
              -121.011142,
              39.007095
            ],
            [
              -121.010975,
              39.007293
            ],
            [
              -121.010927,
              39.007344
            ],
            [
              -121.010657,
              39.007592
            ],
            [
              -121.010598,
              39.007638
            ],
            [
              -121.010534,
              39.007687
            ],
            [
              -121.010454,
              39.007746
            ],
            [
              -121.010225,
              39.0079
            ],
            [
              -121.01018,
              39.007927
            ],
            [
              -121.01011,
              39.00797
            ],
            [
              -121.009921,
              39.008079
            ],
            [
              -121.00986,
              39.008111
            ],
            [
              -121.009522,
              39.008264
            ],
            [
              -121.009439,
              39.008296
            ],
            [
              -121.00919,
              39.008381
            ],
            [
              -121.008931,
              39.008447
            ],
            [
              -121.008666,
              39.008494
            ],
            [
              -121.008625,
              39.008499
            ],
            [
              -121.00851,
              39.008513
            ],
            [
              -121.008475,
              39.008517
            ],
            [
              -121.008218,
              39.008535
            ],
            [
              -121.007959,
              39.008535
            ],
            [
              -121.007899,
              39.008531
            ],
            [
              -121.007864,
              39.008633
            ],
            [
              -121.007776,
              39.00882
            ],
            [
              -121.007776,
              39.00882
            ],
            [
              -121.007803,
              39.008924
            ],
            [
              -121.007832,
              39.00913
            ],
            [
              -121.007834,
              39.009158
            ],
            [
              -121.007839,
              39.009264
            ],
            [
              -121.00784,
              39.009334
            ],
            [
              -121.007823,
              39.009613
            ],
            [
              -121.007817,
              39.009659
            ],
            [
              -121.007815,
              39.009673
            ],
            [
              -121.007807,
              39.009728
            ],
            [
              -121.00776,
              39.009948
            ],
            [
              -121.007685,
              39.010164
            ],
            [
              -121.007605,
              39.010328
            ],
            [
              -121.007608,
              39.010474
            ],
            [
              -121.007607,
              39.010512
            ],
            [
              -121.007578,
              39.010793
            ],
            [
              -121.007575,
              39.010808
            ],
            [
              -121.007563,
              39.010933
            ],
            [
              -121.007505,
              39.011247
            ],
            [
              -121.007466,
              39.011388
            ],
            [
              -121.007352,
              39.011691
            ],
            [
              -121.007332,
              39.011733
            ],
            [
              -121.007199,
              39.011969
            ],
            [
              -121.007033,
              39.012192
            ],
            [
              -121.006861,
              39.012372
            ],
            [
              -121.006856,
              39.012391
            ],
            [
              -121.006838,
              39.012444
            ],
            [
              -121.006764,
              39.012628
            ],
            [
              -121.006747,
              39.012666
            ],
            [
              -121.006647,
              39.012855
            ],
            [
              -121.006526,
              39.013036
            ],
            [
              -121.006499,
              39.013073
            ],
            [
              -121.00638,
              39.013219
            ],
            [
              -121.006248,
              39.013358
            ],
            [
              -121.006205,
              39.013399
            ],
            [
              -121.006003,
              39.013574
            ],
            [
              -121.005778,
              39.013733
            ],
            [
              -121.005735,
              39.01376
            ],
            [
              -121.005691,
              39.013789
            ],
            [
              -121.00567,
              39.013801
            ],
            [
              -121.005633,
              39.013878
            ],
            [
              -121.005545,
              39.014029
            ],
            [
              -121.005539,
              39.014048
            ],
            [
              -121.005469,
              39.01423
            ],
            [
              -121.005382,
              39.014422
            ],
            [
              -121.005358,
              39.014467
            ],
            [
              -121.005331,
              39.01452
            ],
            [
              -121.005237,
              39.014685
            ],
            [
              -121.005117,
              39.014875
            ],
            [
              -121.004975,
              39.015074
            ],
            [
              -121.004934,
              39.015125
            ],
            [
              -121.00483,
              39.015245
            ],
            [
              -121.004785,
              39.015295
            ],
            [
              -121.004598,
              39.015476
            ],
            [
              -121.004389,
              39.015641
            ],
            [
              -121.004332,
              39.015682
            ],
            [
              -121.004054,
              39.015857
            ],
            [
              -121.004004,
              39.015885
            ],
            [
              -121.003824,
              39.015977
            ],
            [
              -121.003635,
              39.016058
            ],
            [
              -121.003575,
              39.016081
            ],
            [
              -121.003333,
              39.016166
            ],
            [
              -121.003082,
              39.016233
            ],
            [
              -121.003047,
              39.016241
            ],
            [
              -121.002756,
              39.016295
            ],
            [
              -121.00246,
              39.016324
            ],
            [
              -121.002161,
              39.01633
            ],
            [
              -121.001863,
              39.016312
            ],
            [
              -121.001805,
              39.016306
            ],
            [
              -121.001622,
              39.016282
            ],
            [
              -121.001531,
              39.016268
            ],
            [
              -121.001415,
              39.016249
            ],
            [
              -121.001369,
              39.01624
            ],
            [
              -121.001123,
              39.016185
            ],
            [
              -121.000884,
              39.016113
            ],
            [
              -121.000654,
              39.016024
            ],
            [
              -121.000561,
              39.015984
            ],
            [
              -121.000517,
              39.015963
            ],
            [
              -121.00045,
              39.015982
            ],
            [
              -121.0003,
              39.016012
            ],
            [
              -121.0003,
              39.016012
            ],
            [
              -121.000264,
              39.01602
            ],
            [
              -121.000236,
              39.016025
            ],
            [
              -121.000132,
              39.016046
            ],
            [
              -121.000073,
              39.016055
            ],
            [
              -121.000072,
              39.016051
            ],
            [
              -120.999864,
              39.016085
            ],
            [
              -120.999795,
              39.016092
            ],
            [
              -120.999544,
              39.016109
            ],
            [
              -120.999486,
              39.016111
            ],
            [
              -120.999247,
              39.016111
            ],
            [
              -120.999009,
              39.016097
            ],
            [
              -120.998773,
              39.016066
            ],
            [
              -120.998673,
              39.01605
            ],
            [
              -120.998631,
              39.016044
            ],
            [
              -120.998479,
              39.016017
            ],
            [
              -120.998393,
              39.015999
            ],
            [
              -120.998327,
              39.015985
            ],
            [
              -120.998152,
              39.015947
            ],
            [
              -120.997915,
              39.015886
            ],
            [
              -120.997833,
              39.015862
            ],
            [
              -120.997569,
              39.015772
            ],
            [
              -120.997497,
              39.015744
            ],
            [
              -120.997338,
              39.015678
            ],
            [
              -120.997236,
              39.015631
            ],
            [
              -120.997206,
              39.015618
            ],
            [
              -120.997106,
              39.015572
            ],
            [
              -120.997053,
              39.015546
            ],
            [
              -120.996982,
              39.015512
            ],
            [
              -120.996923,
              39.015485
            ],
            [
              -120.996861,
              39.015455
            ],
            [
              -120.996748,
              39.015401
            ],
            [
              -120.996669,
              39.015361
            ],
            [
              -120.99649,
              39.015267
            ],
            [
              -120.996456,
              39.015249
            ],
            [
              -120.996389,
              39.015213
            ],
            [
              -120.996354,
              39.015193
            ],
            [
              -120.99629,
              39.015201
            ],
            [
              -120.996007,
              39.015213
            ],
            [
              -120.995724,
              39.015203
            ],
            [
              -120.995444,
              39.015172
            ],
            [
              -120.995169,
              39.015119
            ],
            [
              -120.994902,
              39.015046
            ],
            [
              -120.994645,
              39.014953
            ],
            [
              -120.994401,
              39.01484
            ],
            [
              -120.994173,
              39.014709
            ],
            [
              -120.993962,
              39.014562
            ],
            [
              -120.99377,
              39.014399
            ],
            [
              -120.9936,
              39.014222
            ],
            [
              -120.993453,
              39.014033
            ],
            [
              -120.993331,
              39.013834
            ],
            [
              -120.993234,
              39.013626
            ],
            [
              -120.993164,
              39.013412
            ],
            [
              -120.99312,
              39.013194
            ],
            [
              -120.993105,
              39.012973
            ],
            [
              -120.993117,
              39.012752
            ],
            [
              -120.993157,
              39.012534
            ],
            [
              -120.993225,
              39.012319
            ],
            [
              -120.993319,
              39.01211
            ],
            [
              -120.993438,
              39.01191
            ],
            [
              -120.993467,
              39.011867
            ],
            [
              -120.99351,
              39.011806
            ],
            [
              -120.993528,
              39.011782
            ],
            [
              -120.993615,
              39.011675
            ],
            [
              -120.993614,
              39.011675
            ],
            [
              -120.993655,
              39.011623
            ],
            [
              -120.993699,
              39.011573
            ],
            [
              -120.993741,
              39.011517
            ],
            [
              -120.993767,
              39.011484
            ],
            [
              -120.993769,
              39.011482
            ],
            [
              -120.993814,
              39.011392
            ],
            [
              -120.993821,
              39.01138
            ],
            [
              -120.993945,
              39.011186
            ],
            [
              -120.994092,
              39.011002
            ],
            [
              -120.994262,
              39.01083
            ],
            [
              -120.994452,
              39.010672
            ],
            [
              -120.99466,
              39.010528
            ],
            [
              -120.994669,
              39.010523
            ],
            [
              -120.994908,
              39.010389
            ],
            [
              -120.995162,
              39.010275
            ],
            [
              -120.995431,
              39.010181
            ],
            [
              -120.99571,
              39.01011
            ],
            [
              -120.995997,
              39.01006
            ],
            [
              -120.996011,
              39.010058
            ],
            [
              -120.996343,
              39.010031
            ],
            [
              -120.996356,
              39.01003
            ],
            [
              -120.996595,
              39.010029
            ],
            [
              -120.996833,
              39.010042
            ],
            [
              -120.997069,
              39.010072
            ],
            [
              -120.997083,
              39.010074
            ],
            [
              -120.997359,
              39.010128
            ],
            [
              -120.997628,
              39.010204
            ],
            [
              -120.997885,
              39.0103
            ],
            [
              -120.997903,
              39.010308
            ],
            [
              -120.998022,
              39.010361
            ],
            [
              -120.998029,
              39.010364
            ],
            [
              -120.998122,
              39.010384
            ],
            [
              -120.998206,
              39.010405
            ],
            [
              -120.998467,
              39.010481
            ],
            [
              -120.998718,
              39.010576
            ],
            [
              -120.998956,
              39.010689
            ],
            [
              -120.999179,
              39.01082
            ],
            [
              -120.999384,
              39.010967
            ],
            [
              -120.999568,
              39.011126
            ],
            [
              -120.999801,
              39.011084
            ],
            [
              -121.000091,
              39.011055
            ],
            [
              -121.000144,
              39.011054
            ],
            [
              -121.000387,
              39.010957
            ],
            [
              -121.000658,
              39.010875
            ],
            [
              -121.000843,
              39.010834
            ],
            [
              -121.001009,
              39.010684
            ],
            [
              -121.001197,
              39.010541
            ],
            [
              -121.001342,
              39.010449
            ],
            [
              -121.001281,
              39.010365
            ],
            [
              -121.001166,
              39.010166
            ],
            [
              -121.001141,
              39.010108
            ],
            [
              -121.001013,
              39.009903
            ],
            [
              -121.000911,
              39.009685
            ],
            [
              -121.000838,
              39.00946
            ],
            [
              -121.000795,
              39.00923
            ],
            [
              -121.000783,
              39.008999
            ],
            [
              -121.000801,
              39.008767
            ],
            [
              -121.000808,
              39.008721
            ],
            [
              -121.000854,
              39.008501
            ],
            [
              -121.000929,
              39.008286
            ],
            [
              -121.000938,
              39.008267
            ],
            [
              -121.000918,
              39.008259
            ],
            [
              -121.00068,
              39.008135
            ],
            [
              -121.000459,
              39.007994
            ],
            [
              -121.000257,
              39.007836
            ],
            [
              -121.000076,
              39.007663
            ],
            [
              -121.000028,
              39.007612
            ],
            [
              -120.999848,
              39.007396
            ],
            [
              -120.9997,
              39.007166
            ],
            [
              -120.999587,
              39.006924
            ],
            [
              -120.999547,
              39.00682
            ],
            [
              -120.999486,
              39.006634
            ],
            [
              -120.999481,
              39.006612
            ],
            [
              -120.999437,
              39.006531
            ],
            [
              -120.999344,
              39.006335
            ],
            [
              -120.999274,
              39.006132
            ],
            [
              -120.999229,
              39.005925
            ],
            [
              -120.999208,
              39.005716
            ],
            [
              -120.999213,
              39.005506
            ],
            [
              -120.999243,
              39.005298
            ],
            [
              -120.999267,
              39.005179
            ],
            [
              -120.999323,
              39.004969
            ],
            [
              -120.999327,
              39.004894
            ],
            [
              -120.999367,
              39.004678
            ],
            [
              -120.999433,
              39.004466
            ],
            [
              -120.999525,
              39.00426
            ],
            [
              -120.999642,
              39.004062
            ],
            [
              -120.999783,
              39.003874
            ],
            [
              -120.99994,
              39.003705
            ],
            [
              -120.999973,
              39.003644
            ],
            [
              -121.000091,
              39.003456
            ],
            [
              -121.000231,
              39.003277
            ],
            [
              -121.000391,
              39.003109
            ],
            [
              -121.000571,
              39.002953
            ],
            [
              -121.000769,
              39.002811
            ],
            [
              -121.000983,
              39.002684
            ],
            [
              -121.001211,
              39.002573
            ],
            [
              -121.001263,
              39.00255
            ],
            [
              -121.001507,
              39.002455
            ],
            [
              -121.001761,
              39.002378
            ],
            [
              -121.002024,
              39.00232
            ],
            [
              -121.002292,
              39.002282
            ],
            [
              -121.002564,
              39.002264
            ],
            [
              -121.002836,
              39.002265
            ],
            [
              -121.003107,
              39.002287
            ],
            [
              -121.003375,
              39.002329
            ],
            [
              -121.003636,
              39.00239
            ],
            [
              -121.003889,
              39.00247
            ],
            [
              -121.00413,
              39.002569
            ],
            [
              -121.004192,
              39.002597
            ],
            [
              -121.004218,
              39.00261
            ],
            [
              -121.004251,
              39.002596
            ],
            [
              -121.004322,
              39.002567
            ],
            [
              -121.004503,
              39.002504
            ],
            [
              -121.004551,
              39.002361
            ],
            [
              -121.004648,
              39.002158
            ],
            [
              -121.004768,
              39.001963
            ],
            [
              -121.004913,
              39.001778
            ],
            [
              -121.005079,
              39.001605
            ],
            [
              -121.00514,
              39.001552
            ],
            [
              -121.005129,
              39.001533
            ],
            [
              -121.00504,
              39.001331
            ],
            [
              -121.005021,
              39.001281
            ],
            [
              -121.004957,
              39.001073
            ],
            [
              -121.004918,
              39.00086
            ],
            [
              -121.004906,
              39.000646
            ],
            [
              -121.004919,
              39.000432
            ],
            [
              -121.004959,
              39.000219
            ],
            [
              -121.004971,
              39.000171
            ],
            [
              -121.005042,
              38.999949
            ],
            [
              -121.005084,
              38.999858
            ],
            [
              -121.005023,
              38.999783
            ],
            [
              -121.005007,
              38.999762
            ],
            [
              -121.004874,
              38.999556
            ],
            [
              -121.004769,
              38.99934
            ],
            [
              -121.004692,
              38.999117
            ],
            [
              -121.004645,
              38.99889
            ],
            [
              -121.004628,
              38.99866
            ],
            [
              -121.004642,
              38.998429
            ],
            [
              -121.004651,
              38.998354
            ],
            [
              -121.00469,
              38.998145
            ],
            [
              -121.004715,
              38.998064
            ],
            [
              -121.004609,
              38.997904
            ],
            [
              -121.004507,
              38.997704
            ],
            [
              -121.004429,
              38.997497
            ],
            [
              -121.004405,
              38.997419
            ],
            [
              -121.004355,
              38.997215
            ],
            [
              -121.004329,
              38.997009
            ],
            [
              -121.004328,
              38.996831
            ],
            [
              -121.004326,
              38.996821
            ],
            [
              -121.004298,
              38.996667
            ],
            [
              -121.00427,
              38.99637
            ],
            [
              -121.004269,
              38.996221
            ],
            [
              -121.004269,
              38.99619
            ],
            [
              -121.00427,
              38.99602
            ],
            [
              -121.0043,
              38.99571
            ],
            [
              -121.004311,
              38.995652
            ],
            [
              -121.004363,
              38.995444
            ],
            [
              -121.004439,
              38.995241
            ],
            [
              -121.00454,
              38.995044
            ],
            [
              -121.004664,
              38.994856
            ],
            [
              -121.00481,
              38.994677
            ],
            [
              -121.004977,
              38.99451
            ],
            [
              -121.005163,
              38.994356
            ],
            [
              -121.005367,
              38.994217
            ],
            [
              -121.005414,
              38.994187
            ],
            [
              -121.005594,
              38.994086
            ],
            [
              -121.005644,
              38.99397
            ],
            [
              -121.005755,
              38.993773
            ],
            [
              -121.005889,
              38.993585
            ],
            [
              -121.005965,
              38.9935
            ],
            [
              -121.005963,
              38.993494
            ],
            [
              -121.005935,
              38.993283
            ],
            [
              -121.005933,
              38.99307
            ],
            [
              -121.005937,
              38.992989
            ],
            [
              -121.005963,
              38.992761
            ],
            [
              -121.006018,
              38.992537
            ],
            [
              -121.006103,
              38.992318
            ],
            [
              -121.006215,
              38.992107
            ],
            [
              -121.006354,
              38.991906
            ],
            [
              -121.006513,
              38.991723
            ],
            [
              -121.006533,
              38.991694
            ],
            [
              -121.006595,
              38.991599
            ],
            [
              -121.006734,
              38.991408
            ],
            [
              -121.006897,
              38.991228
            ],
            [
              -121.007082,
              38.991061
            ],
            [
              -121.007133,
              38.99102
            ],
            [
              -121.007335,
              38.99087
            ],
            [
              -121.00745,
              38.990799
            ],
            [
              -121.007462,
              38.990664
            ],
            [
              -121.007498,
              38.990477
            ],
            [
              -121.007518,
              38.990397
            ],
            [
              -121.007589,
              38.990177
            ],
            [
              -121.00756,
              38.990085
            ],
            [
              -121.007521,
              38.989872
            ],
            [
              -121.007508,
              38.989657
            ],
            [
              -121.007508,
              38.989619
            ],
            [
              -121.007522,
              38.989397
            ],
            [
              -121.007564,
              38.989178
            ],
            [
              -121.007633,
              38.988963
            ],
            [
              -121.007729,
              38.988754
            ],
            [
              -121.007851,
              38.988554
            ],
            [
              -121.007997,
              38.988364
            ],
            [
              -121.008167,
              38.988186
            ],
            [
              -121.008358,
              38.988022
            ],
            [
              -121.008396,
              38.987993
            ],
            [
              -121.008447,
              38.987957
            ],
            [
              -121.008518,
              38.987836
            ],
            [
              -121.008671,
              38.987632
            ],
            [
              -121.008688,
              38.987612
            ],
            [
              -121.008703,
              38.987595
            ],
            [
              -121.008896,
              38.987392
            ],
            [
              -121.009118,
              38.987207
            ],
            [
              -121.009365,
              38.987043
            ],
            [
              -121.009426,
              38.987007
            ],
            [
              -121.009695,
              38.986866
            ],
            [
              -121.009708,
              38.98686
            ],
            [
              -121.00985,
              38.986772
            ],
            [
              -121.01013,
              38.986637
            ],
            [
              -121.010145,
              38.98663
            ],
            [
              -121.010021,
              38.986503
            ],
            [
              -121.009872,
              38.986316
            ],
            [
              -121.009748,
              38.986117
            ],
            [
              -121.009649,
              38.98591
            ],
            [
              -121.009576,
              38.985696
            ],
            [
              -121.009531,
              38.985478
            ],
            [
              -121.009513,
              38.985258
            ],
            [
              -121.009523,
              38.985037
            ],
            [
              -121.009561,
              38.984818
            ],
            [
              -121.009626,
              38.984603
            ],
            [
              -121.009717,
              38.984394
            ],
            [
              -121.009835,
              38.984193
            ],
            [
              -121.009977,
              38.984001
            ],
            [
              -121.010143,
              38.983822
            ],
            [
              -121.01033,
              38.983656
            ],
            [
              -121.010537,
              38.983506
            ],
            [
              -121.010762,
              38.983372
            ],
            [
              -121.011003,
              38.983255
            ],
            [
              -121.011036,
              38.983243
            ],
            [
              -121.011037,
              38.983216
            ],
            [
              -121.011055,
              38.983025
            ],
            [
              -121.011071,
              38.982914
            ],
            [
              -121.011099,
              38.982765
            ],
            [
              -121.011126,
              38.98265
            ],
            [
              -121.011184,
              38.982452
            ],
            [
              -121.011265,
              38.982259
            ],
            [
              -121.011271,
              38.982246
            ],
            [
              -121.0113,
              38.982141
            ],
            [
              -121.011376,
              38.981951
            ],
            [
              -121.011473,
              38.981767
            ],
            [
              -121.011489,
              38.98174
            ],
            [
              -121.011634,
              38.981527
            ],
            [
              -121.011807,
              38.981327
            ],
            [
              -121.012007,
              38.981143
            ],
            [
              -121.012047,
              38.98111
            ],
            [
              -121.012273,
              38.980941
            ],
            [
              -121.012522,
              38.980793
            ],
            [
              -121.012789,
              38.980667
            ],
            [
              -121.012904,
              38.980619
            ],
            [
              -121.013176,
              38.980519
            ],
            [
              -121.013177,
              38.980519
            ],
            [
              -121.013273,
              38.980449
            ],
            [
              -121.013503,
              38.980312
            ],
            [
              -121.013546,
              38.980292
            ],
            [
              -121.013705,
              38.980178
            ],
            [
              -121.013967,
              38.98003
            ],
            [
              -121.014013,
              38.980007
            ],
            [
              -121.014107,
              38.979965
            ],
            [
              -121.014159,
              38.979925
            ],
            [
              -121.014377,
              38.979787
            ],
            [
              -121.014612,
              38.979667
            ],
            [
              -121.01486,
              38.979564
            ],
            [
              -121.01512,
              38.979481
            ],
            [
              -121.01539,
              38.979419
            ],
            [
              -121.015422,
              38.979412
            ],
            [
              -121.015432,
              38.979411
            ],
            [
              -121.015584,
              38.979212
            ],
            [
              -121.01577,
              38.97902
            ],
            [
              -121.015981,
              38.978844
            ],
            [
              -121.016215,
              38.978687
            ],
            [
              -121.016274,
              38.978652
            ],
            [
              -121.016497,
              38.978531
            ],
            [
              -121.016733,
              38.978426
            ],
            [
              -121.01698,
              38.97834
            ],
            [
              -121.017237,
              38.978272
            ],
            [
              -121.017501,
              38.978222
            ],
            [
              -121.017557,
              38.978214
            ],
            [
              -121.017861,
              38.978182
            ],
            [
              -121.018168,
              38.978176
            ],
            [
              -121.018475,
              38.978195
            ],
            [
              -121.018777,
              38.978239
            ],
            [
              -121.018796,
              38.978244
            ],
            [
              -121.018932,
              38.978195
            ],
            [
              -121.01919,
              38.978124
            ],
            [
              -121.019455,
              38.978072
            ],
            [
              -121.019535,
              38.97806
            ],
            [
              -121.019815,
              38.978027
            ],
            [
              -121.020099,
              38.978017
            ],
            [
              -121.020168,
              38.978017
            ],
            [
              -121.020463,
              38.978028
            ],
            [
              -121.020755,
              38.978064
            ],
            [
              -121.021041,
              38.978122
            ],
            [
              -121.021317,
              38.978203
            ],
            [
              -121.02137,
              38.978221
            ],
            [
              -121.021455,
              38.978249
            ],
            [
              -121.021529,
              38.978276
            ],
            [
              -121.021597,
              38.978286
            ],
            [
              -121.021723,
              38.978309
            ],
            [
              -121.021926,
              38.978352
            ],
            [
              -121.02209,
              38.978391
            ],
            [
              -121.022185,
              38.978416
            ],
            [
              -121.022338,
              38.978458
            ],
            [
              -121.022649,
              38.978559
            ],
            [
              -121.022943,
              38.978688
            ],
            [
              -121.022944,
              38.978688
            ],
            [
              -121.02305,
              38.97873
            ],
            [
              -121.023224,
              38.978805
            ],
            [
              -121.023305,
              38.978843
            ],
            [
              -121.023636,
              38.979023
            ],
            [
              -121.023694,
              38.97906
            ],
            [
              -121.023866,
              38.979129
            ],
            [
              -121.024145,
              38.979278
            ],
            [
              -121.024239,
              38.979334
            ],
            [
              -121.02448,
              38.979496
            ],
            [
              -121.024697,
              38.979678
            ],
            [
              -121.024887,
              38.979877
            ],
            [
              -121.024897,
              38.979889
            ],
            [
              -121.024918,
              38.979887
            ],
            [
              -121.025201,
              38.979878
            ],
            [
              -121.025484,
              38.979891
            ],
            [
              -121.025764,
              38.979926
            ],
            [
              -121.026038,
              38.979982
            ],
            [
              -121.026303,
              38.980058
            ],
            [
              -121.026558,
              38.980155
            ],
            [
              -121.026799,
              38.98027
            ],
            [
              -121.027025,
              38.980404
            ],
            [
              -121.027233,
              38.980554
            ],
            [
              -121.027421,
              38.980719
            ],
            [
              -121.027588,
              38.980898
            ],
            [
              -121.027731,
              38.981088
            ],
            [
              -121.027849,
              38.981289
            ],
            [
              -121.027942,
              38.981498
            ],
            [
              -121.028008,
              38.981713
            ],
            [
              -121.028047,
              38.981932
            ],
            [
              -121.028058,
              38.982152
            ],
            [
              -121.028042,
              38.982373
            ],
            [
              -121.028031,
              38.982427
            ]
          ]
        ]
      },
      "properties": {
        "aoi_id": "tier1-bear-river-canal-corridor",
        "role": "digitizing bound for Tier 1; not evidence and not an alignment",
        "derived_from": [
          "Bear River Canal",
          "Bear River Canal Trail",
          "Bowman Feeder Canal"
        ],
        "endpoints": [
          "Crother Road",
          "Placer Hills Road"
        ],
        "corridor_miles": 5.03,
        "buffer_m": 250,
        "source": "OpenStreetMap via Overpass API",
        "source_url": "https://overpass-api.de/api/interpreter",
        "osm_snapshot": "2026-08-30T00:00:00Z",
        "rights": "odbl",
        "attribution": "\u00a9 OpenStreetMap contributors, ODbL",
        "retrieved": "2026-08-30"
      }
    }
  ]
}
