{
  "type": "FeatureCollection",
  "features": [
    {
      "type": "Feature",
      "geometry": {
        "type": "Polygon",
        "coordinates": [
          [
            [
              -121.5,
              38.625
            ],
            [
              -121.375,
              38.625
            ],
            [
              -121.375,
              38.75
            ],
            [
              -121.5,
              38.75
            ],
            [
              -121.5,
              38.625
            ]
          ]
        ]
      },
      "properties": {
        "area_id": "q7p5-468-1029",
        "county_geoids": [
          "06061"
        ]
      }
    },
    {
      "type": "Feature",
      "geometry": {
        "type": "Polygon",
        "coordinates": [
          [
            [
              -121.5,
              38.75
            ],
            [
              -121.375,
              38.75
            ],
            [
              -121.375,
              38.875
            ],
            [
              -121.5,
              38.875
            ],
            [
              -121.5,
              38.75
            ]
          ]
        ]
      },
      "properties": {
        "area_id": "q7p5-468-1030",
        "county_geoids": [
          "06061"
        ]
      }
    },
    {
      "type": "Feature",
      "geometry": {
        "type": "Polygon",
        "coordinates": [
          [
            [
              -121.5,
              38.875
            ],
            [
              -121.375,
              38.875
            ],
            [
              -121.375,
              39.0
            ],
            [
              -121.5,
              39.0
            ],
            [
              -121.5,
              38.875
            ]
          ]
        ]
      },
      "properties": {
        "area_id": "q7p5-468-1031",
        "county_geoids": [
          "06061"
        ]
      }
    },
    {
      "type": "Feature",
      "geometry": {
        "type": "Polygon",
        "coordinates": [
          [
            [
              -121.5,
              39.0
            ],
            [
              -121.375,
              39.0
            ],
            [
              -121.375,
              39.125
            ],
            [
              -121.5,
              39.125
            ],
            [
              -121.5,
              39.0
            ]
          ]
        ]
      },
      "properties": {
        "area_id": "q7p5-468-1032",
        "county_geoids": [
          "06061"
        ]
      }
    },
    {
      "type": "Feature",
      "geometry": {
        "type": "Polygon",
        "coordinates": [
          [
            [
              -121.375,
              38.625
            ],
            [
              -121.25,
              38.625
            ],
            [
              -121.25,
              38.75
            ],
            [
              -121.375,
              38.75
            ],
            [
              -121.375,
              38.625
            ]
          ]
        ]
      },
      "properties": {
        "area_id": "q7p5-469-1029",
        "county_geoids": [
          "06061"
        ]
      }
    },
    {
      "type": "Feature",
      "geometry": {
        "type": "Polygon",
        "coordinates": [
          [
            [
              -121.375,
              38.75
            ],
            [
              -121.25,
              38.75
            ],
            [
              -121.25,
              38.875
            ],
            [
              -121.375,
              38.875
            ],
            [
              -121.375,
              38.75
            ]
          ]
        ]
      },
      "properties": {
        "area_id": "q7p5-469-1030",
        "county_geoids": [
          "06061"
        ]
      }
    },
    {
      "type": "Feature",
      "geometry": {
        "type": "Polygon",
        "coordinates": [
          [
            [
              -121.375,
              38.875
            ],
            [
              -121.25,
              38.875
            ],
            [
              -121.25,
              39.0
            ],
            [
              -121.375,
              39.0
            ],
            [
              -121.375,
              38.875
            ]
          ]
        ]
      },
      "properties": {
        "area_id": "q7p5-469-1031",
        "county_geoids": [
          "06061"
        ]
      }
    },
    {
      "type": "Feature",
      "geometry": {
        "type": "Polygon",
        "coordinates": [
          [
            [
              -121.375,
              39.0
            ],
            [
              -121.25,
              39.0
            ],
            [
              -121.25,
              39.125
            ],
            [
              -121.375,
              39.125
            ],
            [
              -121.375,
              39.0
            ]
          ]
        ]
      },
      "properties": {
        "area_id": "q7p5-469-1032",
        "county_geoids": [
          "06057",
          "06061"
        ]
      }
    },
    {
      "type": "Feature",
      "geometry": {
        "type": "Polygon",
        "coordinates": [
          [
            [
              -121.375,
              39.125
            ],
            [
              -121.25,
              39.125
            ],
            [
              -121.25,
              39.25
            ],
            [
              -121.375,
              39.25
            ],
            [
              -121.375,
              39.125
            ]
          ]
        ]
      },
      "properties": {
        "area_id": "q7p5-469-1033",
        "county_geoids": [
          "06057"
        ]
      }
    },
    {
      "type": "Feature",
      "geometry": {
        "type": "Polygon",
        "coordinates": [
          [
            [
              -121.375,
              39.25
            ],
            [
              -121.25,
              39.25
            ],
            [
              -121.25,
              39.375
            ],
            [
              -121.375,
              39.375
            ],
            [
              -121.375,
              39.25
            ]
          ]
        ]
      },
      "properties": {
        "area_id": "q7p5-469-1034",
        "county_geoids": [
          "06057"
        ]
      }
    },
    {
      "type": "Feature",
      "geometry": {
        "type": "Polygon",
        "coordinates": [
          [
            [
              -121.25,
              38.625
            ],
            [
              -121.125,
              38.625
            ],
            [
              -121.125,
              38.75
            ],
            [
              -121.25,
              38.75
            ],
            [
              -121.25,
              38.625
            ]
          ]
        ]
      },
      "properties": {
        "area_id": "q7p5-470-1029",
        "county_geoids": [
          "06061"
        ]
      }
    },
    {
      "type": "Feature",
      "geometry": {
        "type": "Polygon",
        "coordinates": [
          [
            [
              -121.25,
              38.75
            ],
            [
              -121.125,
              38.75
            ],
            [
              -121.125,
              38.875
            ],
            [
              -121.25,
              38.875
            ],
            [
              -121.25,
              38.75
            ]
          ]
        ]
      },
      "properties": {
        "area_id": "q7p5-470-1030",
        "county_geoids": [
          "06061"
        ]
      }
    },
    {
      "type": "Feature",
      "geometry": {
        "type": "Polygon",
        "coordinates": [
          [
            [
              -121.25,
              38.875
            ],
            [
              -121.125,
              38.875
            ],
            [
              -121.125,
              39.0
            ],
            [
              -121.25,
              39.0
            ],
            [
              -121.25,
              38.875
            ]
          ]
        ]
      },
      "properties": {
        "area_id": "q7p5-470-1031",
        "county_geoids": [
          "06061"
        ]
      }
    },
    {
      "type": "Feature",
      "geometry": {
        "type": "Polygon",
        "coordinates": [
          [
            [
              -121.25,
              39.0
            ],
            [
              -121.125,
              39.0
            ],
            [
              -121.125,
              39.125
            ],
            [
              -121.25,
              39.125
            ],
            [
              -121.25,
              39.0
            ]
          ]
        ]
      },
      "properties": {
        "area_id": "q7p5-470-1032",
        "county_geoids": [
          "06057",
          "06061"
        ]
      }
    },
    {
      "type": "Feature",
      "geometry": {
        "type": "Polygon",
        "coordinates": [
          [
            [
              -121.25,
              39.125
            ],
            [
              -121.125,
              39.125
            ],
            [
              -121.125,
              39.25
            ],
            [
              -121.25,
              39.25
            ],
            [
              -121.25,
              39.125
            ]
          ]
        ]
      },
      "properties": {
        "area_id": "q7p5-470-1033",
        "county_geoids": [
          "06057"
        ]
      }
    },
    {
      "type": "Feature",
      "geometry": {
        "type": "Polygon",
        "coordinates": [
          [
            [
              -121.25,
              39.25
            ],
            [
              -121.125,
              39.25
            ],
            [
              -121.125,
              39.375
            ],
            [
              -121.25,
              39.375
            ],
            [
              -121.25,
              39.25
            ]
          ]
        ]
      },
      "properties": {
        "area_id": "q7p5-470-1034",
        "county_geoids": [
          "06057"
        ]
      }
    },
    {
      "type": "Feature",
      "geometry": {
        "type": "Polygon",
        "coordinates": [
          [
            [
              -121.25,
              39.375
            ],
            [
              -121.125,
              39.375
            ],
            [
              -121.125,
              39.5
            ],
            [
              -121.25,
              39.5
            ],
            [
              -121.25,
              39.375
            ]
          ]
        ]
      },
      "properties": {
        "area_id": "q7p5-470-1035",
        "county_geoids": [
          "06057"
        ]
      }
    },
    {
      "type": "Feature",
      "geometry": {
        "type": "Polygon",
        "coordinates": [
          [
            [
              -121.125,
              38.625
            ],
            [
              -121.0,
              38.625
            ],
            [
              -121.0,
              38.75
            ],
            [
              -121.125,
              38.75
            ],
            [
              -121.125,
              38.625
            ]
          ]
        ]
      },
      "properties": {
        "area_id": "q7p5-471-1029",
        "county_geoids": [
          "06061"
        ]
      }
    },
    {
      "type": "Feature",
      "geometry": {
        "type": "Polygon",
        "coordinates": [
          [
            [
              -121.125,
              38.75
            ],
            [
              -121.0,
              38.75
            ],
            [
              -121.0,
              38.875
            ],
            [
              -121.125,
              38.875
            ],
            [
              -121.125,
              38.75
            ]
          ]
        ]
      },
      "properties": {
        "area_id": "q7p5-471-1030",
        "county_geoids": [
          "06061"
        ]
      }
    },
    {
      "type": "Feature",
      "geometry": {
        "type": "Polygon",
        "coordinates": [
          [
            [
              -121.125,
              38.875
            ],
            [
              -121.0,
              38.875
            ],
            [
              -121.0,
              39.0
            ],
            [
              -121.125,
              39.0
            ],
            [
              -121.125,
              38.875
            ]
          ]
        ]
      },
      "properties": {
        "area_id": "q7p5-471-1031",
        "county_geoids": [
          "06061"
        ]
      }
    },
    {
      "type": "Feature",
      "geometry": {
        "type": "Polygon",
        "coordinates": [
          [
            [
              -121.125,
              39.0
            ],
            [
              -121.0,
              39.0
            ],
            [
              -121.0,
              39.125
            ],
            [
              -121.125,
              39.125
            ],
            [
              -121.125,
              39.0
            ]
          ]
        ]
      },
      "properties": {
        "area_id": "q7p5-471-1032",
        "county_geoids": [
          "06057",
          "06061"
        ]
      }
    },
    {
      "type": "Feature",
      "geometry": {
        "type": "Polygon",
        "coordinates": [
          [
            [
              -121.125,
              39.125
            ],
            [
              -121.0,
              39.125
            ],
            [
              -121.0,
              39.25
            ],
            [
              -121.125,
              39.25
            ],
            [
              -121.125,
              39.125
            ]
          ]
        ]
      },
      "properties": {
        "area_id": "q7p5-471-1033",
        "county_geoids": [
          "06057"
        ]
      }
    },
    {
      "type": "Feature",
      "geometry": {
        "type": "Polygon",
        "coordinates": [
          [
            [
              -121.125,
              39.25
            ],
            [
              -121.0,
              39.25
            ],
            [
              -121.0,
              39.375
            ],
            [
              -121.125,
              39.375
            ],
            [
              -121.125,
              39.25
            ]
          ]
        ]
      },
      "properties": {
        "area_id": "q7p5-471-1034",
        "county_geoids": [
          "06057"
        ]
      }
    },
    {
      "type": "Feature",
      "geometry": {
        "type": "Polygon",
        "coordinates": [
          [
            [
              -121.125,
              39.375
            ],
            [
              -121.0,
              39.375
            ],
            [
              -121.0,
              39.5
            ],
            [
              -121.125,
              39.5
            ],
            [
              -121.125,
              39.375
            ]
          ]
        ]
      },
      "properties": {
        "area_id": "q7p5-471-1035",
        "county_geoids": [
          "06057"
        ]
      }
    },
    {
      "type": "Feature",
      "geometry": {
        "type": "Polygon",
        "coordinates": [
          [
            [
              -121.0,
              38.875
            ],
            [
              -120.875,
              38.875
            ],
            [
              -120.875,
              39.0
            ],
            [
              -121.0,
              39.0
            ],
            [
              -121.0,
              38.875
            ]
          ]
        ]
      },
      "properties": {
        "area_id": "q7p5-472-1031",
        "county_geoids": [
          "06061"
        ]
      }
    },
    {
      "type": "Feature",
      "geometry": {
        "type": "Polygon",
        "coordinates": [
          [
            [
              -121.0,
              39.0
            ],
            [
              -120.875,
              39.0
            ],
            [
              -120.875,
              39.125
            ],
            [
              -121.0,
              39.125
            ],
            [
              -121.0,
              39.0
            ]
          ]
        ]
      },
      "properties": {
        "area_id": "q7p5-472-1032",
        "county_geoids": [
          "06057",
          "06061"
        ]
      }
    },
    {
      "type": "Feature",
      "geometry": {
        "type": "Polygon",
        "coordinates": [
          [
            [
              -121.0,
              39.125
            ],
            [
              -120.875,
              39.125
            ],
            [
              -120.875,
              39.25
            ],
            [
              -121.0,
              39.25
            ],
            [
              -121.0,
              39.125
            ]
          ]
        ]
      },
      "properties": {
        "area_id": "q7p5-472-1033",
        "county_geoids": [
          "06057",
          "06061"
        ]
      }
    },
    {
      "type": "Feature",
      "geometry": {
        "type": "Polygon",
        "coordinates": [
          [
            [
              -121.0,
              39.25
            ],
            [
              -120.875,
              39.25
            ],
            [
              -120.875,
              39.375
            ],
            [
              -121.0,
              39.375
            ],
            [
              -121.0,
              39.25
            ]
          ]
        ]
      },
      "properties": {
        "area_id": "q7p5-472-1034",
        "county_geoids": [
          "06057"
        ]
      }
    },
    {
      "type": "Feature",
      "geometry": {
        "type": "Polygon",
        "coordinates": [
          [
            [
              -121.0,
              39.375
            ],
            [
              -120.875,
              39.375
            ],
            [
              -120.875,
              39.5
            ],
            [
              -121.0,
              39.5
            ],
            [
              -121.0,
              39.375
            ]
          ]
        ]
      },
      "properties": {
        "area_id": "q7p5-472-1035",
        "county_geoids": [
          "06057"
        ]
      }
    },
    {
      "type": "Feature",
      "geometry": {
        "type": "Polygon",
        "coordinates": [
          [
            [
              -120.875,
              38.875
            ],
            [
              -120.75,
              38.875
            ],
            [
              -120.75,
              39.0
            ],
            [
              -120.875,
              39.0
            ],
            [
              -120.875,
              38.875
            ]
          ]
        ]
      },
      "properties": {
        "area_id": "q7p5-473-1031",
        "county_geoids": [
          "06061"
        ]
      }
    },
    {
      "type": "Feature",
      "geometry": {
        "type": "Polygon",
        "coordinates": [
          [
            [
              -120.875,
              39.0
            ],
            [
              -120.75,
              39.0
            ],
            [
              -120.75,
              39.125
            ],
            [
              -120.875,
              39.125
            ],
            [
              -120.875,
              39.0
            ]
          ]
        ]
      },
      "properties": {
        "area_id": "q7p5-473-1032",
        "county_geoids": [
          "06061"
        ]
      }
    },
    {
      "type": "Feature",
      "geometry": {
        "type": "Polygon",
        "coordinates": [
          [
            [
              -120.875,
              39.125
            ],
            [
              -120.75,
              39.125
            ],
            [
              -120.75,
              39.25
            ],
            [
              -120.875,
              39.25
            ],
            [
              -120.875,
              39.125
            ]
          ]
        ]
      },
      "properties": {
        "area_id": "q7p5-473-1033",
        "county_geoids": [
          "06057",
          "06061"
        ]
      }
    },
    {
      "type": "Feature",
      "geometry": {
        "type": "Polygon",
        "coordinates": [
          [
            [
              -120.875,
              39.25
            ],
            [
              -120.75,
              39.25
            ],
            [
              -120.75,
              39.375
            ],
            [
              -120.875,
              39.375
            ],
            [
              -120.875,
              39.25
            ]
          ]
        ]
      },
      "properties": {
        "area_id": "q7p5-473-1034",
        "county_geoids": [
          "06057",
          "06061"
        ]
      }
    },
    {
      "type": "Feature",
      "geometry": {
        "type": "Polygon",
        "coordinates": [
          [
            [
              -120.875,
              39.375
            ],
            [
              -120.75,
              39.375
            ],
            [
              -120.75,
              39.5
            ],
            [
              -120.875,
              39.5
            ],
            [
              -120.875,
              39.375
            ]
          ]
        ]
      },
      "properties": {
        "area_id": "q7p5-473-1035",
        "county_geoids": [
          "06057"
        ]
      }
    },
    {
      "type": "Feature",
      "geometry": {
        "type": "Polygon",
        "coordinates": [
          [
            [
              -120.75,
              38.875
            ],
            [
              -120.625,
              38.875
            ],
            [
              -120.625,
              39.0
            ],
            [
              -120.75,
              39.0
            ],
            [
              -120.75,
              38.875
            ]
          ]
        ]
      },
      "properties": {
        "area_id": "q7p5-474-1031",
        "county_geoids": [
          "06061"
        ]
      }
    },
    {
      "type": "Feature",
      "geometry": {
        "type": "Polygon",
        "coordinates": [
          [
            [
              -120.75,
              39.0
            ],
            [
              -120.625,
              39.0
            ],
            [
              -120.625,
              39.125
            ],
            [
              -120.75,
              39.125
            ],
            [
              -120.75,
              39.0
            ]
          ]
        ]
      },
      "properties": {
        "area_id": "q7p5-474-1032",
        "county_geoids": [
          "06061"
        ]
      }
    },
    {
      "type": "Feature",
      "geometry": {
        "type": "Polygon",
        "coordinates": [
          [
            [
              -120.75,
              39.125
            ],
            [
              -120.625,
              39.125
            ],
            [
              -120.625,
              39.25
            ],
            [
              -120.75,
              39.25
            ],
            [
              -120.75,
              39.125
            ]
          ]
        ]
      },
      "properties": {
        "area_id": "q7p5-474-1033",
        "county_geoids": [
          "06061"
        ]
      }
    },
    {
      "type": "Feature",
      "geometry": {
        "type": "Polygon",
        "coordinates": [
          [
            [
              -120.75,
              39.25
            ],
            [
              -120.625,
              39.25
            ],
            [
              -120.625,
              39.375
            ],
            [
              -120.75,
              39.375
            ],
            [
              -120.75,
              39.25
            ]
          ]
        ]
      },
      "properties": {
        "area_id": "q7p5-474-1034",
        "county_geoids": [
          "06057",
          "06061"
        ]
      }
    },
    {
      "type": "Feature",
      "geometry": {
        "type": "Polygon",
        "coordinates": [
          [
            [
              -120.75,
              39.375
            ],
            [
              -120.625,
              39.375
            ],
            [
              -120.625,
              39.5
            ],
            [
              -120.75,
              39.5
            ],
            [
              -120.75,
              39.375
            ]
          ]
        ]
      },
      "properties": {
        "area_id": "q7p5-474-1035",
        "county_geoids": [
          "06057"
        ]
      }
    },
    {
      "type": "Feature",
      "geometry": {
        "type": "Polygon",
        "coordinates": [
          [
            [
              -120.75,
              39.5
            ],
            [
              -120.625,
              39.5
            ],
            [
              -120.625,
              39.625
            ],
            [
              -120.75,
              39.625
            ],
            [
              -120.75,
              39.5
            ]
          ]
        ]
      },
      "properties": {
        "area_id": "q7p5-474-1036",
        "county_geoids": [
          "06057"
        ]
      }
    },
    {
      "type": "Feature",
      "geometry": {
        "type": "Polygon",
        "coordinates": [
          [
            [
              -120.625,
              38.875
            ],
            [
              -120.5,
              38.875
            ],
            [
              -120.5,
              39.0
            ],
            [
              -120.625,
              39.0
            ],
            [
              -120.625,
              38.875
            ]
          ]
        ]
      },
      "properties": {
        "area_id": "q7p5-475-1031",
        "county_geoids": [
          "06061"
        ]
      }
    },
    {
      "type": "Feature",
      "geometry": {
        "type": "Polygon",
        "coordinates": [
          [
            [
              -120.625,
              39.0
            ],
            [
              -120.5,
              39.0
            ],
            [
              -120.5,
              39.125
            ],
            [
              -120.625,
              39.125
            ],
            [
              -120.625,
              39.0
            ]
          ]
        ]
      },
      "properties": {
        "area_id": "q7p5-475-1032",
        "county_geoids": [
          "06061"
        ]
      }
    },
    {
      "type": "Feature",
      "geometry": {
        "type": "Polygon",
        "coordinates": [
          [
            [
              -120.625,
              39.125
            ],
            [
              -120.5,
              39.125
            ],
            [
              -120.5,
              39.25
            ],
            [
              -120.625,
              39.25
            ],
            [
              -120.625,
              39.125
            ]
          ]
        ]
      },
      "properties": {
        "area_id": "q7p5-475-1033",
        "county_geoids": [
          "06061"
        ]
      }
    },
    {
      "type": "Feature",
      "geometry": {
        "type": "Polygon",
        "coordinates": [
          [
            [
              -120.625,
              39.25
            ],
            [
              -120.5,
              39.25
            ],
            [
              -120.5,
              39.375
            ],
            [
              -120.625,
              39.375
            ],
            [
              -120.625,
              39.25
            ]
          ]
        ]
      },
      "properties": {
        "area_id": "q7p5-475-1034",
        "county_geoids": [
          "06057",
          "06061"
        ]
      }
    },
    {
      "type": "Feature",
      "geometry": {
        "type": "Polygon",
        "coordinates": [
          [
            [
              -120.625,
              39.375
            ],
            [
              -120.5,
              39.375
            ],
            [
              -120.5,
              39.5
            ],
            [
              -120.625,
              39.5
            ],
            [
              -120.625,
              39.375
            ]
          ]
        ]
      },
      "properties": {
        "area_id": "q7p5-475-1035",
        "county_geoids": [
          "06057"
        ]
      }
    },
    {
      "type": "Feature",
      "geometry": {
        "type": "Polygon",
        "coordinates": [
          [
            [
              -120.625,
              39.5
            ],
            [
              -120.5,
              39.5
            ],
            [
              -120.5,
              39.625
            ],
            [
              -120.625,
              39.625
            ],
            [
              -120.625,
              39.5
            ]
          ]
        ]
      },
      "properties": {
        "area_id": "q7p5-475-1036",
        "county_geoids": [
          "06057"
        ]
      }
    },
    {
      "type": "Feature",
      "geometry": {
        "type": "Polygon",
        "coordinates": [
          [
            [
              -120.5,
              38.875
            ],
            [
              -120.375,
              38.875
            ],
            [
              -120.375,
              39.0
            ],
            [
              -120.5,
              39.0
            ],
            [
              -120.5,
              38.875
            ]
          ]
        ]
      },
      "properties": {
        "area_id": "q7p5-476-1031",
        "county_geoids": [
          "06061"
        ]
      }
    },
    {
      "type": "Feature",
      "geometry": {
        "type": "Polygon",
        "coordinates": [
          [
            [
              -120.5,
              39.0
            ],
            [
              -120.375,
              39.0
            ],
            [
              -120.375,
              39.125
            ],
            [
              -120.5,
              39.125
            ],
            [
              -120.5,
              39.0
            ]
          ]
        ]
      },
      "properties": {
        "area_id": "q7p5-476-1032",
        "county_geoids": [
          "06061"
        ]
      }
    },
    {
      "type": "Feature",
      "geometry": {
        "type": "Polygon",
        "coordinates": [
          [
            [
              -120.5,
              39.125
            ],
            [
              -120.375,
              39.125
            ],
            [
              -120.375,
              39.25
            ],
            [
              -120.5,
              39.25
            ],
            [
              -120.5,
              39.125
            ]
          ]
        ]
      },
      "properties": {
        "area_id": "q7p5-476-1033",
        "county_geoids": [
          "06061"
        ]
      }
    },
    {
      "type": "Feature",
      "geometry": {
        "type": "Polygon",
        "coordinates": [
          [
            [
              -120.5,
              39.25
            ],
            [
              -120.375,
              39.25
            ],
            [
              -120.375,
              39.375
            ],
            [
              -120.5,
              39.375
            ],
            [
              -120.5,
              39.25
            ]
          ]
        ]
      },
      "properties": {
        "area_id": "q7p5-476-1034",
        "county_geoids": [
          "06057",
          "06061"
        ]
      }
    },
    {
      "type": "Feature",
      "geometry": {
        "type": "Polygon",
        "coordinates": [
          [
            [
              -120.5,
              39.375
            ],
            [
              -120.375,
              39.375
            ],
            [
              -120.375,
              39.5
            ],
            [
              -120.5,
              39.5
            ],
            [
              -120.5,
              39.375
            ]
          ]
        ]
      },
      "properties": {
        "area_id": "q7p5-476-1035",
        "county_geoids": [
          "06057"
        ]
      }
    },
    {
      "type": "Feature",
      "geometry": {
        "type": "Polygon",
        "coordinates": [
          [
            [
              -120.375,
              39.0
            ],
            [
              -120.25,
              39.0
            ],
            [
              -120.25,
              39.125
            ],
            [
              -120.375,
              39.125
            ],
            [
              -120.375,
              39.0
            ]
          ]
        ]
      },
      "properties": {
        "area_id": "q7p5-477-1032",
        "county_geoids": [
          "06061"
        ]
      }
    },
    {
      "type": "Feature",
      "geometry": {
        "type": "Polygon",
        "coordinates": [
          [
            [
              -120.375,
              39.125
            ],
            [
              -120.25,
              39.125
            ],
            [
              -120.25,
              39.25
            ],
            [
              -120.375,
              39.25
            ],
            [
              -120.375,
              39.125
            ]
          ]
        ]
      },
      "properties": {
        "area_id": "q7p5-477-1033",
        "county_geoids": [
          "06061"
        ]
      }
    },
    {
      "type": "Feature",
      "geometry": {
        "type": "Polygon",
        "coordinates": [
          [
            [
              -120.375,
              39.25
            ],
            [
              -120.25,
              39.25
            ],
            [
              -120.25,
              39.375
            ],
            [
              -120.375,
              39.375
            ],
            [
              -120.375,
              39.25
            ]
          ]
        ]
      },
      "properties": {
        "area_id": "q7p5-477-1034",
        "county_geoids": [
          "06057",
          "06061"
        ]
      }
    },
    {
      "type": "Feature",
      "geometry": {
        "type": "Polygon",
        "coordinates": [
          [
            [
              -120.375,
              39.375
            ],
            [
              -120.25,
              39.375
            ],
            [
              -120.25,
              39.5
            ],
            [
              -120.375,
              39.5
            ],
            [
              -120.375,
              39.375
            ]
          ]
        ]
      },
      "properties": {
        "area_id": "q7p5-477-1035",
        "county_geoids": [
          "06057"
        ]
      }
    },
    {
      "type": "Feature",
      "geometry": {
        "type": "Polygon",
        "coordinates": [
          [
            [
              -120.25,
              39.0
            ],
            [
              -120.125,
              39.0
            ],
            [
              -120.125,
              39.125
            ],
            [
              -120.25,
              39.125
            ],
            [
              -120.25,
              39.0
            ]
          ]
        ]
      },
      "properties": {
        "area_id": "q7p5-478-1032",
        "county_geoids": [
          "06061"
        ]
      }
    },
    {
      "type": "Feature",
      "geometry": {
        "type": "Polygon",
        "coordinates": [
          [
            [
              -120.25,
              39.125
            ],
            [
              -120.125,
              39.125
            ],
            [
              -120.125,
              39.25
            ],
            [
              -120.25,
              39.25
            ],
            [
              -120.25,
              39.125
            ]
          ]
        ]
      },
      "properties": {
        "area_id": "q7p5-478-1033",
        "county_geoids": [
          "06061"
        ]
      }
    },
    {
      "type": "Feature",
      "geometry": {
        "type": "Polygon",
        "coordinates": [
          [
            [
              -120.25,
              39.25
            ],
            [
              -120.125,
              39.25
            ],
            [
              -120.125,
              39.375
            ],
            [
              -120.25,
              39.375
            ],
            [
              -120.25,
              39.25
            ]
          ]
        ]
      },
      "properties": {
        "area_id": "q7p5-478-1034",
        "county_geoids": [
          "06057",
          "06061"
        ]
      }
    },
    {
      "type": "Feature",
      "geometry": {
        "type": "Polygon",
        "coordinates": [
          [
            [
              -120.25,
              39.375
            ],
            [
              -120.125,
              39.375
            ],
            [
              -120.125,
              39.5
            ],
            [
              -120.25,
              39.5
            ],
            [
              -120.25,
              39.375
            ]
          ]
        ]
      },
      "properties": {
        "area_id": "q7p5-478-1035",
        "county_geoids": [
          "06057"
        ]
      }
    },
    {
      "type": "Feature",
      "geometry": {
        "type": "Polygon",
        "coordinates": [
          [
            [
              -120.125,
              39.0
            ],
            [
              -120.0,
              39.0
            ],
            [
              -120.0,
              39.125
            ],
            [
              -120.125,
              39.125
            ],
            [
              -120.125,
              39.0
            ]
          ]
        ]
      },
      "properties": {
        "area_id": "q7p5-479-1032",
        "county_geoids": [
          "06061"
        ]
      }
    },
    {
      "type": "Feature",
      "geometry": {
        "type": "Polygon",
        "coordinates": [
          [
            [
              -120.125,
              39.125
            ],
            [
              -120.0,
              39.125
            ],
            [
              -120.0,
              39.25
            ],
            [
              -120.125,
              39.25
            ],
            [
              -120.125,
              39.125
            ]
          ]
        ]
      },
      "properties": {
        "area_id": "q7p5-479-1033",
        "county_geoids": [
          "06061"
        ]
      }
    },
    {
      "type": "Feature",
      "geometry": {
        "type": "Polygon",
        "coordinates": [
          [
            [
              -120.125,
              39.25
            ],
            [
              -120.0,
              39.25
            ],
            [
              -120.0,
              39.375
            ],
            [
              -120.125,
              39.375
            ],
            [
              -120.125,
              39.25
            ]
          ]
        ]
      },
      "properties": {
        "area_id": "q7p5-479-1034",
        "county_geoids": [
          "06057",
          "06061"
        ]
      }
    },
    {
      "type": "Feature",
      "geometry": {
        "type": "Polygon",
        "coordinates": [
          [
            [
              -120.125,
              39.375
            ],
            [
              -120.0,
              39.375
            ],
            [
              -120.0,
              39.5
            ],
            [
              -120.125,
              39.5
            ],
            [
              -120.125,
              39.375
            ]
          ]
        ]
      },
      "properties": {
        "area_id": "q7p5-479-1035",
        "county_geoids": [
          "06057"
        ]
      }
    }
  ]
}
